EYESAT A (AO-27)        
1 22825U 93061C   26166.18185475  .00000084  00000+0  48753-4 0  9990
2 22825  98.6881 233.5961 0009521 104.9010 255.3227 14.30941747706719
ITAMSAT (IO-26)         
1 22826U 93061D   26166.16186548  .00000083  00000+0  48145-4 0  9995
2 22826  98.6828 233.4933 0010091  90.3104 269.9235 14.31368614707027
RADIO ROSTO (RS15)      
1 23439U 94085A   26166.51957745 -.00000054  00000+0 -31591-3 0  9993
2 23439  64.8179 305.9132 0155900   4.1846 356.0343 11.27583474295714
JAS-2 (FO-29)           
1 24278U 96046B   26166.53668919  .00000013  00000+0  45334-4 0  9992
2 24278  98.5240  15.6350 0350881 100.7038 263.3808 13.53274267472943
FORTE                   
1 24920U 97047A   26165.99334974  .00000125  00000+0  73787-4 0  9995
2 24920  69.9540  18.9768 0024615 280.0731  79.7614 14.27944382498379
TECHSAT 1B (GO-32)      
1 25397U 98043D   26166.51904378  .00000030  00000+0  33240-4 0  9996
2 25397  99.0067 159.2356 0000970 166.6144 193.5060 14.24428091451092
ISS (ZARYA)             
1 25544U 98067A   26166.51237795  .00007685  00000+0  14626-3 0  9997
2 25544  51.6337 308.3821 0004850 189.0196 171.0706 15.49243792571497
IMAGE                   
1 26113U 00017A   26162.34581823  .00000011  00000+0  22926-1 0  9995
2 26113  94.2241 315.2958 7436383 288.4674   8.8959  1.68665984161407
CLUSTER II-FM7 (SAMBA)  
1 26410U 00041A   26168.13893488  .00013373  00000+0  00000+0 0  9990
2 26410 149.9159  50.9864 9054007 268.1291 359.6411  0.44868040 20307
CLUSTER II-FM8 (TANGO)  
1 26464U 00045B   26166.18659910  .00011716  00000+0  00000+0 0  9995
2 26464 150.1452  51.6789 9056528 268.6418   2.8164  0.44420492 20303
ODIN                    
1 26702U 01007A   26166.37956394  .00152420  00000+0  10010-2 0  9999
2 26702  97.3827 207.2059 0006850 145.0151 215.1565 15.75246975389114
OMNI-M1                 
1 26857U 01026A   26166.18988647  .00000003  00000+0  00000+0 0  9990
2 26857  44.8311 245.7243 0014128  52.9927 307.1972  3.92401526205499
PCSAT (NO-44)           
1 26931U 01043C   26166.48302536  .00000083  00000+0  62026-4 0  9991
2 26931  67.0506 248.6795 0006076 264.5468  95.4941 14.31955550290205
PROBA-1                 
1 26958U 01049B   26166.54362231  .00002453  00000+0  16052-3 0  9991
2 26958  97.9596 175.0185 0056339 127.2820 233.3563 15.07492372343377
SAUDISAT 1C (SO-50)     
1 27607U 02058C   26166.33462240  .00000861  00000+0  11895-3 0  9993
2 27607  64.5510 134.7171 0075307 262.8143  96.4397 14.83043230264184
CORIOLIS                
1 27640U 03001A   26166.50601944  .00000079  00000+0  57567-4 0  9992
2 27640  98.7125 173.4164 0013277 213.8978 146.1351 14.19944407213984
CUTE-1 (CO-55)          
1 27844U 03031E   26166.49171905  .00000237  00000+0  12167-3 0  9990
2 27844  98.6736 175.0719 0009421 182.9125 177.2000 14.24334794191436
CUBESAT XI-IV (CO-57)   
1 27848U 03031J   26166.47932631  .00000199  00000+0  10658-3 0  9993
2 27848  98.6767 174.7736 0008908 202.2653 157.8140 14.23619986191134
MOZHAETS 4 (RS22)       
1 27939U 03042A   26166.51872079  .00000933  00000+0  15197-3 0  9999
2 27939  98.3461 350.8304 0009964 275.8462 168.1396 14.73465563215307
